NORAD_CAT_ID,OBJECT_NAME,OBJECT_TYPE,EPOCH,MEAN_MOTION,ECCENTRICITY,INCLINATION,RA_OF_ASC_NODE,ARG_OF_PERICENTER,MEAN_ANOMALY,BSTAR,MEAN_MOTION_DOT,MEAN_MOTION_DDOT,TLE_LINE0,TLE_LINE1,TLE_LINE2,SEMIMAJOR_AXIS,PERIOD,APOGEE,PERIGEE,DECAYED
52658.0,STARLINK-4082,PAYLOAD,2022-11-12 21:43:48,15.08845662,0.0002611,53.2165,198.5158,35.9297,324.187,0.00015374,2.1600000000000007e-05,0.0,0 STARLINK-4082,1 52658U 22053C   22316.90541675  .00002160  00000-0  15374-3 0  9991,2 52658  53.2165 198.5158 0002611  35.9297 324.1870 15.08845662 28147,6917.863,95.437,541.534,537.922,0.0
52658.0,STARLINK-4082,PAYLOAD,2022-11-13 02:29:57,15.08845333,0.0002548,53.2165,197.6262,35.9295,324.1868,0.0001065,1.407e-05,0.0,0 STARLINK-4082,1 52658U 22053C   22317.10413742  .00001407  00000-0  10650-3 0  9992,2 52658  53.2165 197.6262 0002548  35.9295 324.1868 15.08845333 28175,6917.864000000001,95.437,541.492,537.966,0.0
52658.0,STARLINK-4082,PAYLOAD,2022-11-13 12:02:16,15.08838988,0.0002692,53.2168,195.8411,33.8286,326.2877,-4.0049e-05,-9.26e-06,0.0,0 STARLINK-4082,1 52658U 22053C   22317.50158499 -.00000926  00000-0 -40049-4 0  9994,2 52658  53.2168 195.8411 0002692  33.8286 326.2877 15.08838988 28239,6917.8830000000025,95.438,541.611,537.886,0.0
52658.0,STARLINK-4082,PAYLOAD,2022-11-14 08:42:18,15.08826022,0.0002578,53.2167,191.9745,32.6681,327.4471,-6.178399999999999e-05,-1.271e-05,0.0,0 STARLINK-4082,1 52658U 22053C   22318.36271948 -.00001271  00000-0 -61784-4 0  9997,2 52658  53.2167 191.9745 0002578  32.6681 327.4471 15.08826022 28367,6917.9230000000025,95.438,541.572,538.005,0.0
52658.0,STARLINK-4082,PAYLOAD,2022-11-14 18:14:37,15.08832972,0.0002598,53.2167,190.1902,32.1854,327.9296,-5.2593e-05,-1.125e-05,0.0,0 STARLINK-4082,1 52658U 22053C   22318.76015750 -.00001125  00000-0 -52593-4 0  9994,2 52658  53.2167 190.1902 0002598  32.1854 327.9296 15.08832972 28420,6917.901999999999,95.438,541.564,537.97,0.0
52658.0,STARLINK-4082,PAYLOAD,2022-11-15 08:33:05,15.08835974,0.0002646,53.2166,187.5136,34.2953,325.821,6.5133e-05,7.48e-06,0.0,0 STARLINK-4082,1 52658U 22053C   22319.35631432  .00000748  00000-0  65133-4 0  9993,2 52658  53.2166 187.5136 0002646  34.2953 325.8210 15.08835974 28513,6917.893,95.438,541.5880000000002,537.927,0.0
52658.0,STARLINK-4082,PAYLOAD,2022-11-15 21:16:10,15.08834216,0.0002652,53.2167,185.135,32.1213,327.994,0.00023083,3.387e-05,0.0,0 STARLINK-4082,1 52658U 22053C   22319.88623278  .00003387  00000-0  23083-3 0  9999,2 52658  53.2167 185.1350 0002652  32.1213 327.9940 15.08834216 28598,6917.898,95.438,541.5980000000002,537.928,0.0
52658.0,STARLINK-4082,PAYLOAD,2022-11-16 09:59:15,15.08839027,0.000261,53.2161,182.7559,31.3599,328.7548,0.00018478,2.654e-05,0.0,0 STARLINK-4082,1 52658U 22053C   22320.41615367  .00002654  00000-0  18478-3 0  9998,2 52658  53.2161 182.7559 0002610  31.3599 328.7548 15.08839027 28675,6917.8830000000025,95.438,541.554,537.943,0.0
52658.0,STARLINK-4082,PAYLOAD,2022-11-16 21:06:57,15.08837597,0.0002631,53.2162,180.6739,33.1639,326.9517,0.00010763,1.425e-05,0.0,0 STARLINK-4082,1 52658U 22053C   22320.87983738  .00001425  00000-0  10763-3 0  9992,2 52658  53.2162 180.6739 0002631  33.1639 326.9517 15.08837597 28745,6917.888000000001,95.438,541.573,537.933,0.0
52658.0,STARLINK-4082,PAYLOAD,2022-11-17 20:57:44,15.08842817,0.0002738,53.2159,176.2134,37.3163,322.8018,9.4646e-05,1.218e-05,0.0,0 STARLINK-4082,1 52658U 22053C   22321.87343226  .00001218  00000-0  94646-4 0  9998,2 52658  53.2159 176.2134 0002738  37.3163 322.8018 15.08842817 28895,6917.871999999999,95.437,541.631,537.8430000000002,0.0
52658.0,STARLINK-4082,PAYLOAD,2022-11-18 00:08:30,15.08843004,0.0002744,53.2164,175.6196,35.0461,325.0711,-3.3595e-05,-8.23e-06,0.0,0 STARLINK-4082,1 52658U 22053C   22322.00591430 -.00000823  00000-0 -33595-4 0  9995,2 52658  53.2164 175.6196 0002744  35.0461 325.0711 15.08843004 28912,6917.871,95.437,541.634,537.8380000000002,0.0
52658.0,STARLINK-4082,PAYLOAD,2022-11-18 04:54:40,15.088429,0.0002776,53.2164,174.7275,35.1129,325.0045,-3.209e-05,-7.99e-06,0.0,0 STARLINK-4082,1 52658U 22053C   22322.20463367 -.00000799  00000-0 -32090-4 0  9995,2 52658  53.2164 174.7275 0002776  35.1129 325.0045 15.08842900 28944,6917.871999999999,95.437,541.6569999999998,537.816,0.0
52658.0,STARLINK-4082,PAYLOAD,2022-11-18 20:48:31,15.08843058,0.000275,53.2162,171.7533,35.7932,324.3244,7.7451e-05,9.44e-06,0.0,0 STARLINK-4082,1 52658U 22053C   22322.86702984  .00000944  00000-0  77451-4 0  9998,2 52658  53.2162 171.7533 0002750  35.7932 324.3244 15.08843058 29046,6917.871,95.437,541.638,537.8340000000002,0.0
52658.0,STARLINK-4082,PAYLOAD,2022-11-18 23:59:17,15.08845207,0.0002774,53.2165,171.1588,36.104,324.0139,5.906600000000003e-05,6.52e-06,0.0,0 STARLINK-4082,1 52658U 22053C   22322.99950869  .00000652  00000-0  59066-4 0  9997,2 52658  53.2165 171.1588 0002774  36.1040 324.0139 15.08845207 29064,6917.864000000001,95.437,541.648,537.81,0.0
52658.0,STARLINK-4082,PAYLOAD,2022-11-19 20:39:18,15.08836864,0.0002802,53.2166,167.2925,37.4476,322.6711,6.1687e-05,6.93e-06,0.0,0 STARLINK-4082,1 52658U 22053C   22323.86063187  .00000693  00000-0  61687-4 0  9999,2 52658  53.2166 167.2925 0002802  37.4476 322.6711 15.08836864 29198,6917.89,95.438,541.693,537.817,0.0
52658.0,STARLINK-4082,PAYLOAD,2022-11-19 23:50:05,15.08833761,0.000281,53.2164,166.6981,36.7542,323.3643,2.5449e-05,1.16e-06,0.0,0 STARLINK-4082,1 52658U 22053C   22323.99311517  .00000116  00000-0  25449-4 0  9992,2 52658  53.2164 166.6981 0002810  36.7542 323.3643 15.08833761 29214,6917.899,95.438,541.7080000000002,537.821,0.0
52658.0,STARLINK-4082,PAYLOAD,2022-11-20 06:11:37,15.08834757,0.0002828,53.2165,165.5086,37.1899,322.9288,3.2287e-05,2.25e-06,0.0,0 STARLINK-4082,1 52658U 22053C   22324.25807589  .00000225  00000-0  32287-4 0  9990,2 52658  53.2165 165.5086 0002828  37.1899 322.9288 15.08834757 29258,6917.896,95.438,541.7180000000002,537.805,0.0
52658.0,STARLINK-4082,PAYLOAD,2022-11-20 20:30:05,15.08841292,0.0002865,53.2165,162.8322,37.8422,322.2771,1.3747e-05,-7e-07,0.0,0 STARLINK-4082,1 52658U 22053C   22324.85423195 -.00000070  00000-0  13747-4 0  9992,2 52658  53.2165 162.8322 0002865  37.8422 322.2771 15.08841292 29343,6917.876,95.437,541.7230000000002,537.759,0.0
52658.0,STARLINK-4082,PAYLOAD,2022-11-20 23:40:51,15.08841583,0.0002747,53.2161,162.2374,39.2306,320.8885,2.7628e-05,1.51e-06,0.0,0 STARLINK-4082,1 52658U 22053C   22324.98671096  .00000151  00000-0  27628-4 0  9993,2 52658  53.2161 162.2374 0002747  39.2306 320.8885 15.08841583 29361,6917.876,95.437,541.641,537.84,0.0
52658.0,STARLINK-4082,PAYLOAD,2022-11-21 09:13:10,15.08842759,0.0002778,53.2167,160.4531,39.5136,320.6058,6.4719e-05,7.42e-06,0.0,0 STARLINK-4082,1 52658U 22053C   22325.38414893  .00000742  00000-0  64719-4 0  9996,2 52658  53.2167 160.4531 0002778  39.5136 320.6058 15.08842759 29423,6917.871999999999,95.437,541.659,537.815,0.0
52658.0,STARLINK-4082,PAYLOAD,2022-11-21 15:34:43,15.08828428,0.0002698,53.2179,159.2622,36.2819,323.8356,5.139e-05,5.29e-06,0.0,0 STARLINK-4082,1 52658U 22053C   22325.64911722  .00000529  00000-0  51390-4 0  9992,2 52658  53.2179 159.2622 0002698  36.2819 323.8356 15.08828428 29463,6917.916,95.438,541.6469999999998,537.914,0.0
52658.0,STARLINK-4082,PAYLOAD,2022-11-21 20:20:53,15.08828412,0.0002917,53.2165,158.3718,37.7231,322.3965,-6.5395000000000015e-06,-3.93e-06,0.0,0 STARLINK-4082,1 52658U 22053C   22325.84784192 -.00000393  00000-0 -65395-5 0  9995,2 52658  53.2165 158.3718 0002917  37.7231 322.3965 15.08828412 29498,6917.916,95.438,541.799,537.763,0.0
52658.0,STARLINK-4082,PAYLOAD,2022-11-21 23:31:39,15.08828521,0.0002921999999999,53.2165,157.7771,38.403,321.717,-2.926e-06,-3.35e-06,0.0,0 STARLINK-4082,1 52658U 22053C   22325.98032266 -.00000335  00000-0 -29260-5 0  9995,2 52658  53.2165 157.7771 0002922  38.4030 321.7170 15.08828521 29516,6917.915,95.438,541.802,537.759,0.0
52658.0,STARLINK-4082,PAYLOAD,2022-11-22 17:00:54,15.08832326,0.0002942,53.2166,154.5059,40.2503,319.8707,-5.3722e-06,-3.74e-06,0.0,0 STARLINK-4082,1 52658U 22053C   22326.70896483 -.00000374  00000-0 -53722-5 0  9998,2 52658  53.2166 154.5059 0002942  40.2503 319.8707 15.08832326 29623,6917.904,95.438,541.804,537.734,0.0
52658.0,STARLINK-4082,PAYLOAD,2022-11-22 18:36:17,15.08831307,0.0002892,53.2167,154.2084,40.3991,319.7215,-1.7816e-07,-2.91e-06,0.0,0 STARLINK-4082,1 52658U 22053C   22326.77520514 -.00000291  00000-0 -17816-6 0  9997,2 52658  53.2167 154.2084 0002892  40.3991 319.7215 15.08831307 29637,6917.906999999997,95.438,541.773,537.771,0.0
52658.0,STARLINK-4082,PAYLOAD,2022-11-23 12:05:32,15.08834495,0.0002773,53.2167,150.9375,40.2908,319.8289,-1.1126e-05,-4.66e-06,0.0,0 STARLINK-4082,1 52658U 22053C   22327.50384632 -.00000466  00000-0 -11126-4 0  9998,2 52658  53.2167 150.9375 0002773  40.2908 319.8289 15.08834495 29743,6917.897,95.438,541.681,537.844,0.0
52658.0,STARLINK-4082,PAYLOAD,2022-11-23 18:27:04,15.08839598,0.0002944,53.2168,149.7481,41.838,318.2837,-2.4603e-05,-6.8e-06,0.0,0 STARLINK-4082,1 52658U 22053C   22327.76880465 -.00000680  00000-0 -24603-4 0  9993,2 52658  53.2168 149.7481 0002944  41.8380 318.2837 15.08839598 29784,6917.882,95.438,541.783,537.71,0.0
52658.0,STARLINK-4082,PAYLOAD,2022-11-24 11:56:19,15.08834077,0.0002948,53.2169,146.4774,42.9192,317.203,8.912799999999999e-05,1.13e-05,0.0,0 STARLINK-4082,1 52658U 22053C   22328.49744970  .00001130  00000-0  89128-4 0  9996,2 52658  53.2169 146.4774 0002948  42.9192 317.2030 15.08834077 29894,6917.898,95.438,541.803,537.724,0.0
52658.0,STARLINK-4082,PAYLOAD,2022-11-24 18:17:52,15.08837698,0.0002982,53.217,145.2884,43.1539,316.9687,9.095e-05,1.159e-05,0.0,0 STARLINK-4082,1 52658U 22053C   22328.76240836  .00001159  00000-0  90950-4 0  9994,2 52658  53.2170 145.2884 0002982  43.1539 316.9687 15.08837698 29932,6917.887,95.438,541.815,537.69,0.0
